{"type":"FeatureCollection","features":[{"type":"Feature","geometry":{"type":"Polygon","coordinates":[[[-117.92053,33.808857],[-117.920424,33.808695],[-117.918991,33.808808],[-117.918651,33.808799],[-117.918612,33.808745],[-117.918614,33.808653],[-117.918618,33.808475],[-117.918368,33.808472],[-117.918372,33.808639],[-117.918269,33.80864],[-117.917972,33.80887],[-117.917801,33.808893],[-117.917864,33.808987],[-117.917886,33.809092],[-117.917795,33.809242],[-117.915526,33.809244],[-117.91553,33.810146],[-117.915532,33.810776],[-117.916023,33.810714],[-117.916153,33.810661],[-117.916288,33.810508],[-117.916658,33.810189],[-117.917064,33.809903],[-117.917764,33.8096],[-117.918022,33.809844],[-117.91897,33.809751],[-117.919591,33.809826],[-117.92018,33.809826],[-117.920441,33.809632],[-117.920419,33.809443],[-117.921452,33.80923],[-117.921769,33.809277],[-117.921863,33.809175],[-117.921857,33.80901],[-117.921413,33.80887],[-117.92063,33.808958],[-117.92053,33.808857]]]},"properties":{"name":"Esplanade","color":"#D8D0A8","opacity":0.28}},{"type":"Feature","geometry":{"type":"Polygon","coordinates":[[[-117.925711,33.808021],[-117.925705,33.807242],[-117.925855,33.807109],[-117.925873,33.806903],[-117.926867,33.806884],[-117.927068,33.806676],[-117.928134,33.806663],[-117.928039,33.803481],[-117.924164,33.80352],[-117.924151,33.805509],[-117.92571,33.805511],[-117.925721,33.806296],[-117.925723,33.80689],[-117.925793,33.807027],[-117.925741,33.807143],[-117.925646,33.80721],[-117.925506,33.807242],[-117.925504,33.808014],[-117.925353,33.808018],[-117.925128,33.808241],[-117.924443,33.808246],[-117.924434,33.808533],[-117.924295,33.808556],[-117.924248,33.808918],[-117.924162,33.808938],[-117.924144,33.809041],[-117.923906,33.809044],[-117.923897,33.808776],[-117.922888,33.80879],[-117.922805,33.808598],[-117.922521,33.808467],[-117.92182,33.808428],[-117.92182,33.808474],[-117.92166,33.80848],[-117.921635,33.808372],[-117.92063,33.80848],[-117.920426,33.80869],[-117.92063,33.808956],[-117.921413,33.808867],[-117.922191,33.8091],[-117.92257,33.809384],[-117.922798,33.809869],[-117.923823,33.809618],[-117.92382,33.809267],[-117.924517,33.809259],[-117.924529,33.809764],[-117.926044,33.809754],[-117.926087,33.809428],[-117.926047,33.809069],[-117.925828,33.808736],[-117.925705,33.808413],[-117.925711,33.808021]]]},"properties":{"name":"Downtown Disney","color":"#D8B840","opacity":0.28}},{"type":"Feature","geometry":{"type":"Polygon","coordinates":[[[-117.923912,33.806697],[-117.922088,33.806512],[-117.92197,33.806637],[-117.921976,33.807064],[-117.92185,33.80707],[-117.921662,33.807175],[-117.921539,33.807328],[-117.921277,33.807331],[-117.921254,33.807414],[-117.92129,33.807681],[-117.921234,33.807716],[-117.921337,33.8084],[-117.921629,33.808373],[-117.921659,33.808472],[-117.921808,33.808472],[-117.921819,33.80843],[-117.922517,33.808467],[-117.92281,33.808596],[-117.922892,33.808787],[-117.923898,33.808773],[-117.923908,33.807156],[-117.924314,33.807154],[-117.924324,33.808018],[-117.925499,33.808016],[-117.925496,33.807257],[-117.925034,33.807253],[-117.925036,33.806976],[-117.923919,33.806985],[-117.923912,33.806697]]]},"properties":{"name":"Grand Californian Hotel","color":"#D8C090","opacity":0.3}},{"type":"Feature","geometry":{"type":"Polygon","coordinates":[[[-117.928125,33.806669],[-117.927076,33.806679],[-117.926866,33.806895],[-117.92588,33.806909],[-117.92587,33.807108],[-117.925715,33.807252],[-117.925709,33.808414],[-117.925832,33.808734],[-117.926052,33.809069],[-117.926094,33.809425],[-117.92605,33.809756],[-117.925935,33.81019],[-117.928142,33.810189],[-117.928125,33.806669]]]},"properties":{"name":"Disneyland Hotel","color":"#D0C8A0","opacity":0.3}},{"type":"Feature","geometry":{"type":"Polygon","coordinates":[[[-117.925705,33.805514],[-117.924139,33.805518],[-117.92415,33.806933],[-117.924966,33.806933],[-117.925496,33.806933],[-117.925596,33.80689],[-117.925707,33.806892],[-117.925705,33.805514]]]},"properties":{"name":"Pixar Place Hotel","color":"#D8B8A0","opacity":0.3}},{"type":"Feature","geometry":{"type":"Polygon","coordinates":[[[-117.928147,33.814396],[-117.924255,33.8144],[-117.92425,33.816182],[-117.928136,33.816182],[-117.928147,33.814396]]]},"properties":{"name":"Mickey & Friends Parking","color":"#B8B8B0","opacity":0.28}},{"type":"Feature","geometry":{"type":"Polygon","coordinates":[[[-117.928142,33.81299],[-117.92525,33.81299],[-117.92525,33.814372],[-117.928142,33.814372],[-117.928142,33.81299]]]},"properties":{"name":"Pixar Pals Parking","color":"#B8B8B0","opacity":0.28}},{"type":"Feature","geometry":{"type":"Polygon","coordinates":[[[-117.91779,33.80889],[-117.915786,33.80889],[-117.915786,33.809242],[-117.91779,33.809242],[-117.917881,33.80909],[-117.917862,33.808989],[-117.91779,33.80889]]]},"properties":{"name":"Toy Story Parking","color":"#B0B0A8","opacity":0.35}},{"type":"Feature","geometry":{"type":"Polygon","coordinates":[[[-117.919604,33.809934],[-117.91879,33.80993],[-117.918478,33.809936],[-117.917648,33.81003],[-117.916574,33.810639],[-117.91669,33.810697],[-117.916338,33.811222],[-117.915928,33.811843],[-117.916121,33.811901],[-117.916335,33.811742],[-117.916566,33.81139],[-117.916929,33.810838],[-117.918034,33.810304],[-117.918086,33.810486],[-117.918347,33.810494],[-117.918349,33.810691],[-117.918413,33.810691],[-117.918427,33.811047],[-117.918225,33.811129],[-117.91827,33.811222],[-117.918011,33.811551],[-117.918017,33.811728],[-117.918253,33.811901],[-117.918355,33.811965],[-117.918412,33.812004],[-117.918508,33.811927],[-117.918673,33.811792],[-117.918745,33.811734],[-117.918813,33.81168],[-117.918961,33.81166],[-117.919094,33.811676],[-117.919364,33.811863],[-117.919466,33.811848],[-117.919483,33.81173],[-117.919495,33.811623],[-117.919469,33.811609],[-117.919512,33.811564],[-117.919438,33.811507],[-117.919443,33.811442],[-117.919495,33.811448],[-117.919488,33.811392],[-117.919455,33.811368],[-117.91942,33.811296],[-117.919362,33.81126],[-117.91936,33.811066],[-117.919357,33.810913],[-117.919348,33.810805],[-117.919397,33.810768],[-117.919478,33.810649],[-117.919478,33.81052],[-117.919512,33.810481],[-117.919524,33.810411],[-117.919526,33.810101],[-117.919604,33.810041],[-117.919604,33.809934]]]},"properties":{"name":"Main Street, U.S.A.","color":"#E8D080","opacity":0.28}},{"type":"Feature","geometry":{"type":"Polygon","coordinates":[[[-117.919478,33.812073],[-117.919361,33.811864],[-117.91909,33.811682],[-117.918954,33.811662],[-117.918813,33.811674],[-117.918509,33.811931],[-117.918412,33.812006],[-117.918438,33.812044],[-117.91845,33.812089],[-117.918434,33.812155],[-117.918505,33.812156],[-117.918525,33.812225],[-117.918612,33.812376],[-117.918659,33.812437],[-117.918752,33.812499],[-117.918853,33.812513],[-117.918923,33.81254],[-117.919022,33.81252],[-117.919057,33.812499],[-117.919146,33.812522],[-117.919228,33.812427],[-117.919289,33.812388],[-117.919317,33.81233],[-117.919422,33.812304],[-117.919455,33.812227],[-117.919478,33.812073]]]},"properties":{"name":"Hub","color":"#F0E0C0","opacity":0.26}},{"type":"Feature","geometry":{"type":"Polygon","coordinates":[[[-117.921883,33.809533],[-117.920934,33.809528],[-117.920931,33.809687],[-117.92067,33.809693],[-117.920651,33.809917],[-117.920929,33.810116],[-117.920926,33.810308],[-117.920782,33.810209],[-117.920616,33.810134],[-117.920134,33.810003],[-117.919762,33.809949],[-117.919682,33.810019],[-117.919658,33.810059],[-117.919598,33.810139],[-117.919605,33.810351],[-117.919618,33.810644],[-117.9195,33.810814],[-117.919498,33.811117],[-117.919493,33.811392],[-117.919502,33.811456],[-117.919448,33.811445],[-117.919445,33.811503],[-117.919515,33.811559],[-117.919476,33.811606],[-117.919501,33.811619],[-117.91947,33.811851],[-117.919368,33.811867],[-117.919417,33.811958],[-117.919544,33.811917],[-117.919702,33.811888],[-117.919795,33.811883],[-117.9198,33.811831],[-117.920012,33.811826],[-117.920012,33.811797],[-117.920064,33.811795],[-117.920154,33.811783],[-117.920231,33.811747],[-117.920288,33.811699],[-117.920334,33.811613],[-117.920438,33.811449],[-117.920493,33.811427],[-117.920529,33.811371],[-117.920676,33.8113],[-117.920657,33.811212],[-117.920621,33.811144],[-117.920684,33.811015],[-117.920744,33.811035],[-117.920929,33.810728],[-117.920948,33.810493],[-117.921143,33.810236],[-117.921293,33.810236],[-117.921296,33.810195],[-117.921573,33.810195],[-117.921891,33.810145],[-117.921883,33.809533]]]},"properties":{"name":"Adventureland","color":"#7BBF6A","opacity":0.28}},{"type":"Feature","geometry":{"type":"Polygon","coordinates":[[[-117.921855,33.810918],[-117.922365,33.810589],[-117.922227,33.810427],[-117.921621,33.810273],[-117.921156,33.810241],[-117.920962,33.810486],[-117.920945,33.810718],[-117.920747,33.811047],[-117.920683,33.811024],[-117.92063,33.811128],[-117.920685,33.811301],[-117.920632,33.811328],[-117.920731,33.81142],[-117.920755,33.811531],[-117.920834,33.811578],[-117.920923,33.811597],[-117.921152,33.811556],[-117.92141,33.811595],[-117.921404,33.811635],[-117.921928,33.812106],[-117.921861,33.812151],[-117.921914,33.812213],[-117.922007,33.812169],[-117.922045,33.81205],[-117.922179,33.812008],[-117.922235,33.811971],[-117.922215,33.811944],[-117.922401,33.811837],[-117.922526,33.811802],[-117.922733,33.811892],[-117.923097,33.811704],[-117.922603,33.811086],[-117.922211,33.811314],[-117.921855,33.810918]]]},"properties":{"name":"New Orleans Square","color":"#B080C8","opacity":0.28}},{"type":"Feature","geometry":{"type":"Polygon","coordinates":[[[-117.921926,33.812104],[-117.921394,33.811635],[-117.921404,33.811597],[-117.921158,33.81156],[-117.920929,33.811598],[-117.920828,33.811578],[-117.920751,33.811526],[-117.920727,33.811419],[-117.920626,33.811324],[-117.920444,33.811452],[-117.920228,33.811756],[-117.920021,33.811805],[-117.920017,33.81183],[-117.919807,33.811835],[-117.919801,33.811882],[-117.919423,33.811959],[-117.919484,33.812065],[-117.919467,33.812215],[-117.919775,33.812421],[-117.919529,33.812529],[-117.919543,33.81255],[-117.919655,33.812553],[-117.919674,33.812596],[-117.919641,33.812643],[-117.919533,33.812787],[-117.919787,33.813182],[-117.919795,33.813955],[-117.920167,33.814056],[-117.920345,33.813876],[-117.920774,33.813685],[-117.921073,33.813675],[-117.921374,33.813749],[-117.921926,33.813948],[-117.922518,33.813779],[-117.922668,33.813654],[-117.922793,33.813517],[-117.92286,33.813369],[-117.92286,33.813203],[-117.922524,33.813161],[-117.922284,33.812811],[-117.921928,33.812586],[-117.921641,33.812302],[-117.921926,33.812104]]]},"properties":{"name":"Frontierland","color":"#C8956A","opacity":0.28}},{"type":"Feature","geometry":{"type":"Polygon","coordinates":[[[-117.923558,33.811672],[-117.923376,33.811511],[-117.923123,33.811506],[-117.923125,33.811758],[-117.922775,33.811897],[-117.922721,33.811897],[-117.922522,33.811808],[-117.922407,33.811835],[-117.922217,33.811944],[-117.922243,33.811971],[-117.922173,33.812017],[-117.922047,33.812054],[-117.922015,33.812166],[-117.921922,33.81222],[-117.921861,33.812149],[-117.921655,33.812301],[-117.921922,33.812579],[-117.922294,33.812811],[-117.922533,33.813157],[-117.922864,33.813199],[-117.923554,33.812974],[-117.923558,33.811672]]]},"properties":{"name":"Bayou Country","color":"#6AB8A8","opacity":0.28}},{"type":"Feature","geometry":{"type":"Polygon","coordinates":[[[-117.923614,33.812968],[-117.922866,33.813208],[-117.92287,33.813368],[-117.922793,33.813532],[-117.922673,33.81366],[-117.922519,33.813782],[-117.921932,33.813961],[-117.921377,33.813756],[-117.921061,33.813679],[-117.920783,33.813695],[-117.920355,33.813878],[-117.920181,33.814077],[-117.919992,33.814653],[-117.919873,33.814788],[-117.919738,33.814881],[-117.919757,33.815224],[-117.919765,33.815669],[-117.920586,33.815663],[-117.92152,33.815663],[-117.923464,33.814637],[-117.923714,33.814045],[-117.923714,33.813308],[-117.923614,33.812968]]]},"properties":{"name":"Star Wars: Galaxy's Edge","color":"#7080B8","opacity":0.3}},{"type":"Feature","geometry":{"type":"Polygon","coordinates":[[[-117.919466,33.812223],[-117.919429,33.812309],[-117.919325,33.812333],[-117.919294,33.812389],[-117.919232,33.812425],[-117.919151,33.812526],[-117.919057,33.812498],[-117.919028,33.812521],[-117.918924,33.812542],[-117.918845,33.812511],[-117.91876,33.812503],[-117.918652,33.812431],[-117.91852,33.812225],[-117.91834,33.812298],[-117.918266,33.812287],[-117.918208,33.812437],[-117.918131,33.812428],[-117.91805,33.812413],[-117.917962,33.812497],[-117.917967,33.812697],[-117.917636,33.812716],[-117.917558,33.81278],[-117.917545,33.812843],[-117.917567,33.812921],[-117.917544,33.813002],[-117.917462,33.813155],[-117.91741,33.813232],[-117.917292,33.813291],[-117.91736,33.813424],[-117.917403,33.813557],[-117.917492,33.813766],[-117.91702,33.8147],[-117.917041,33.815588],[-117.917725,33.815583],[-117.917741,33.815096],[-117.917877,33.814959],[-117.918125,33.814855],[-117.918174,33.8147],[-117.918563,33.814767],[-117.918923,33.814825],[-117.918954,33.814866],[-117.919076,33.81489],[-117.919276,33.814885],[-117.919483,33.814862],[-117.919589,33.814832],[-117.919652,33.81478],[-117.919675,33.814804],[-117.919734,33.814868],[-117.919869,33.814778],[-117.919977,33.81465],[-117.920174,33.81407],[-117.919776,33.813958],[-117.919776,33.813192],[-117.919529,33.812785],[-117.919597,33.812691],[-117.91967,33.812593],[-117.919647,33.812554],[-117.919529,33.812554],[-117.919522,33.812532],[-117.919769,33.81242],[-117.919466,33.812223]]]},"properties":{"name":"Fantasyland","color":"#E890B8","opacity":0.26}},{"type":"Feature","geometry":{"type":"Polygon","coordinates":[[[-117.917752,33.810701],[-117.917575,33.810646],[-117.917373,33.810663],[-117.916948,33.81085],[-117.916348,33.811742],[-117.915827,33.812121],[-117.915595,33.81231],[-117.915627,33.813704],[-117.915866,33.814028],[-117.916213,33.81427],[-117.91672,33.81436],[-117.917191,33.814356],[-117.91749,33.813763],[-117.917412,33.81358],[-117.917359,33.813423],[-117.917288,33.813288],[-117.917419,33.813228],[-117.917545,33.812997],[-117.917566,33.812917],[-117.917541,33.812839],[-117.917554,33.812784],[-117.917639,33.812711],[-117.917961,33.812694],[-117.917956,33.812492],[-117.918048,33.812408],[-117.918202,33.812434],[-117.918262,33.812282],[-117.918342,33.812297],[-117.91852,33.812224],[-117.918501,33.812159],[-117.918431,33.812157],[-117.918447,33.812085],[-117.918434,33.812038],[-117.9184,33.812001],[-117.918377,33.811983],[-117.918349,33.811966],[-117.918254,33.811902],[-117.918138,33.811821],[-117.91801,33.811727],[-117.918005,33.811515],[-117.918044,33.811274],[-117.918007,33.81114],[-117.917931,33.810984],[-117.917867,33.810829],[-117.917752,33.810701]]]},"properties":{"name":"Tomorrowland","color":"#70A8D0","opacity":0.28}},{"type":"Feature","geometry":{"type":"Polygon","coordinates":[[[-117.919653,33.814781],[-117.91959,33.814834],[-117.91948,33.814863],[-117.919278,33.814885],[-117.919077,33.81489],[-117.918949,33.814863],[-117.918917,33.814824],[-117.918179,33.814705],[-117.91813,33.814857],[-117.917906,33.814949],[-117.917889,33.814968],[-117.917873,33.814986],[-117.917907,33.815005],[-117.917779,33.815127],[-117.917786,33.816201],[-117.919683,33.816192],[-117.919666,33.815347],[-117.919639,33.815304],[-117.919636,33.815115],[-117.919662,33.815062],[-117.919653,33.814781]]]},"properties":{"name":"Mickey's Toontown","color":"#F0A040","opacity":0.28}},{"type":"Feature","geometry":{"type":"Polygon","coordinates":[[[-117.919368,33.807256],[-117.919241,33.807167],[-117.919184,33.807137],[-117.919132,33.807098],[-117.919119,33.807064],[-117.919124,33.807023],[-117.918913,33.807162],[-117.91883,33.807228],[-117.918708,33.807323],[-117.918716,33.807702],[-117.91852,33.807703],[-117.918526,33.808218],[-117.91836,33.808223],[-117.918363,33.808465],[-117.918626,33.808467],[-117.918626,33.80864],[-117.918623,33.808749],[-117.918652,33.808792],[-117.918998,33.808802],[-117.919453,33.808765],[-117.919464,33.80798],[-117.919471,33.807837],[-117.919483,33.807831],[-117.919554,33.807665],[-117.919484,33.807521],[-117.91948,33.807432],[-117.919443,33.807381],[-117.919368,33.807256]]]},"properties":{"name":"Buena Vista Street","color":"#E8A060","opacity":0.28}},{"type":"Feature","geometry":{"type":"Polygon","coordinates":[[[-117.918707,33.807324],[-117.918467,33.807122],[-117.917196,33.807122],[-117.916233,33.807119],[-117.916246,33.807948],[-117.916446,33.808725],[-117.917971,33.808721],[-117.917972,33.808188],[-117.918513,33.808188],[-117.918507,33.8077],[-117.918707,33.807695],[-117.918707,33.807324]]]},"properties":{"name":"Hollywood Land","color":"#C87070","opacity":0.28}},{"type":"Feature","geometry":{"type":"Polygon","coordinates":[[[-117.921962,33.806624],[-117.921834,33.806586],[-117.921497,33.80656],[-117.920855,33.80657],[-117.920355,33.806599],[-117.919824,33.8067],[-117.91975,33.80691],[-117.919648,33.807039],[-117.919532,33.807021],[-117.919499,33.80714],[-117.919378,33.807259],[-117.919485,33.807421],[-117.919489,33.807516],[-117.91956,33.807679],[-117.919481,33.807851],[-117.91947,33.808763],[-117.920402,33.808688],[-117.920633,33.80847],[-117.921335,33.808392],[-117.921225,33.807711],[-117.92128,33.807675],[-117.921241,33.807402],[-117.921264,33.80733],[-117.921531,33.807317],[-117.921652,33.807174],[-117.92184,33.807066],[-117.92197,33.807053],[-117.921962,33.806624]]]},"properties":{"name":"Grizzly Peak","color":"#88A860","opacity":0.28}},{"type":"Feature","geometry":{"type":"Polygon","coordinates":[[[-117.920163,33.805209],[-117.919875,33.805375],[-117.919285,33.805767],[-117.919743,33.806252],[-117.920373,33.805899],[-117.920604,33.805961],[-117.920601,33.806081],[-117.920702,33.806084],[-117.920722,33.80597],[-117.920808,33.805927],[-117.920612,33.805463],[-117.920163,33.805209]]]},"properties":{"name":"San Fransokyo Square","color":"#60B0A8","opacity":0.28}},{"type":"Feature","geometry":{"type":"Polygon","coordinates":[[[-117.918136,33.806033],[-117.917414,33.805818],[-117.917406,33.805012],[-117.916522,33.805008],[-117.91654,33.807112],[-117.918468,33.807109],[-117.918712,33.807307],[-117.918825,33.807215],[-117.91902,33.807078],[-117.919178,33.806975],[-117.919275,33.806945],[-117.919344,33.806954],[-117.919362,33.806831],[-117.919041,33.806782],[-117.918633,33.806457],[-117.918559,33.806379],[-117.918572,33.806331],[-117.91853,33.8063],[-117.918404,33.806274],[-117.918296,33.806183],[-117.918136,33.806033]]]},"properties":{"name":"Avengers Campus","color":"#7088B8","opacity":0.28}},{"type":"Feature","geometry":{"type":"Polygon","coordinates":[[[-117.919851,33.803942],[-117.918712,33.803939],[-117.917731,33.804897],[-117.917416,33.805016],[-117.917426,33.805818],[-117.918143,33.806032],[-117.918397,33.806266],[-117.918531,33.806291],[-117.91858,33.80633],[-117.918563,33.806376],[-117.918633,33.806451],[-117.919047,33.806779],[-117.919358,33.806825],[-117.919452,33.806438],[-117.919737,33.806252],[-117.919275,33.805757],[-117.919888,33.805359],[-117.919851,33.803942]]]},"properties":{"name":"Cars Land","color":"#C8844A","opacity":0.28}},{"type":"Feature","geometry":{"type":"Polygon","coordinates":[[[-117.923542,33.805657],[-117.92334,33.805545],[-117.923125,33.805347],[-117.923007,33.805457],[-117.922882,33.805509],[-117.922754,33.805502],[-117.922581,33.805489],[-117.921897,33.80505],[-117.921569,33.804859],[-117.921283,33.804876],[-117.921293,33.805275],[-117.921296,33.805356],[-117.921081,33.805403],[-117.920911,33.805545],[-117.920901,33.805824],[-117.921032,33.805925],[-117.921071,33.806017],[-117.921074,33.806077],[-117.921037,33.806135],[-117.920986,33.806182],[-117.920911,33.80621],[-117.920919,33.806562],[-117.921485,33.806551],[-117.921837,33.806582],[-117.921974,33.806621],[-117.922085,33.806504],[-117.923424,33.806635],[-117.923454,33.806345],[-117.923598,33.806298],[-117.923645,33.805967],[-117.923642,33.805841],[-117.923542,33.805657]]]},"properties":{"name":"Paradise Gardens","color":"#98C878","opacity":0.26}},{"type":"Feature","geometry":{"type":"Polygon","coordinates":[[[-117.922968,33.804816],[-117.922044,33.804404],[-117.922098,33.804318],[-117.922021,33.804187],[-117.922065,33.804123],[-117.921649,33.803949],[-117.921476,33.803964],[-117.921376,33.804121],[-117.920913,33.803936],[-117.920173,33.803947],[-117.920191,33.805198],[-117.920629,33.805451],[-117.920779,33.80582],[-117.920893,33.80582],[-117.920901,33.805541],[-117.921071,33.805401],[-117.921283,33.805352],[-117.921272,33.804871],[-117.921574,33.80485],[-117.922584,33.805483],[-117.922881,33.805502],[-117.923002,33.805453],[-117.923116,33.805343],[-117.923131,33.805236],[-117.9231,33.805137],[-117.922968,33.804816]]]},"properties":{"name":"Pixar Pier","color":"#58B0C8","opacity":0.28}},{"type":"Feature","properties":{"name":"Performance Corridor","color":"#C870A0","opacity":0.28},"geometry":{"type":"Polygon","coordinates":[[[-117.920916,33.806562],[-117.920903,33.806206],[-117.920986,33.80618],[-117.921061,33.806081],[-117.921061,33.806008],[-117.921024,33.805925],[-117.920895,33.805826],[-117.920777,33.805828],[-117.920813,33.805931],[-117.920728,33.805976],[-117.920709,33.806092],[-117.920593,33.806079],[-117.920593,33.805961],[-117.920376,33.805903],[-117.919741,33.806262],[-117.91946,33.806442],[-117.919352,33.806957],[-117.919277,33.806952],[-117.919184,33.80698],[-117.919124,33.807057],[-117.919148,33.807107],[-117.919372,33.807257],[-117.919496,33.807139],[-117.919532,33.807025],[-117.919643,33.807038],[-117.919741,33.806918],[-117.919821,33.806691],[-117.92034,33.806592],[-117.920916,33.806562]]]}}]}